[
    {
        "Altitude(m)": 612502.2511697876,
        "Argument of Periapsis(deg)": 0.0,
        "Eccentricity": 0.0,
        "Inclination(deg)": 60.0,
        "Latitude(deg)": -28.136156154543627,
        "Longitude(deg)": -67.85173746988093,
        "Mean Anomaly(deg)": -32.727300000000014,
        "RAAN(deg)": 50.0,
        "Satellite Name": "Test1 240",
        "Satellite Number": 240,
        "Semi-Major Axis(m)": 6980739.136638005,
        "Time(s)": 0
    },
    {
        "Altitude(m)": 612308.698323817,
        "Argument of Periapsis(deg)": 0.00010418945913296404,
        "Eccentricity": 0.0,
        "Inclination(deg)": 60.0,
        "Latitude(deg)": -27.623211319478834,
        "Longitude(deg)": -67.49826301733589,
        "Mean Anomaly(deg)": -32.107193854538174,
        "RAAN(deg)": 49.99957995086026,
        "Satellite Name": "Test1 240",
        "Satellite Number": 240,
        "Semi-Major Axis(m)": 6980739.136638005,
        "Time(s)": 10
    }
]